KUIPER-00061            
1 64521U 25134X   25215.78426370  .00031910  00000+0  90882-3 0  9998
2 64521  51.8711 131.7253 0005324 255.6588 104.3807 15.35806388  7588
KUIPER-00062            
1 64522U 25134Y   25215.91668981 -.00821930  00000+0 -30998-1 0  9991
2 64522  51.8757 131.2641 0006306 245.7530  57.2651 15.29088127  4455
KUIPER-00063            
1 64523U 25134Z   25215.91668981 -.00858489  00000+0 -28436-1 0  9995
2 64523  51.8766 130.8778 0002930 212.2292 265.0229 15.33371157  5932
KUIPER-00064            
1 64524U 25134AA  25215.58335648 -.00927049  00000+0 -28090-1 0  9995
2 64524  51.8777 132.2838 0000675  91.4878  83.6149 15.36368162  5557
KUIPER-00065            
1 64525U 25134AB  25215.91668981 -.00642288  00000+0 -25859-1 0  9991
2 64525  51.8749 131.5403 0007627 257.7179 227.8356 15.26736778  4633
KUIPER-00066            
1 64526U 25134AC  25215.49263196 -.00109151  00000+0 -30329-2 0  9990
2 64526  51.8772 132.7856 0001487 210.2551 149.8350 15.36679251  7555
KUIPER-00069            
1 64816U 25151A   25215.94382644  .00019899  00000+0  57205-3 0  9991
2 64816  51.8781 197.5405 0005192 201.2978 158.7793 15.35789339  4045
KUIPER-00070            
1 64817U 25151B   25215.91668981 -.00991904  00000+0 -36893-1 0  9996
2 64817  51.8792 197.9398 0005249 230.0082 218.4257 15.29613024  2825
